{"fetched_at":"2026-07-06T08:46:48.490Z","source":"https://celestrak.org/NORAD/elements/gp.php?GROUP=stations&FORMAT=JSON","constellation":"crewed-vehicles","records":[{"OBJECT_NAME":"SOYUZ-MS 28","OBJECT_ID":"2025-275A","EPOCH":"2026-07-05T10:39:01.360800","CLASSIFICATION_TYPE":"U","MEAN_MOTION":15.48905966,"ECCENTRICITY":0.0006728,"INCLINATION":51.6303,"RA_OF_ASC_NODE":209.7275,"ARG_OF_PERICENTER":258.7638,"MEAN_ANOMALY":101.2595,"EPHEMERIS_TYPE":0,"NORAD_CAT_ID":66664,"ELEMENT_SET_NO":999,"REV_AT_EPOCH":64486,"BSTAR":0.00017013,"MEAN_MOTION_DOT":0.00008907,"MEAN_MOTION_DDOT":0},{"OBJECT_NAME":"CREW DRAGON 12","OBJECT_ID":"2026-031A","EPOCH":"2026-07-05T10:39:01.360800","CLASSIFICATION_TYPE":"U","MEAN_MOTION":15.48905966,"ECCENTRICITY":0.0006728,"INCLINATION":51.6303,"RA_OF_ASC_NODE":209.7275,"ARG_OF_PERICENTER":258.7638,"MEAN_ANOMALY":101.2595,"EPHEMERIS_TYPE":0,"NORAD_CAT_ID":67796,"ELEMENT_SET_NO":999,"REV_AT_EPOCH":62713,"BSTAR":0.00017013,"MEAN_MOTION_DOT":0.00008907,"MEAN_MOTION_DDOT":0},{"OBJECT_NAME":"SHENZHOU-23 (SZ-23)","OBJECT_ID":"2026-113A","EPOCH":"2026-07-05T11:19:17.568768","CLASSIFICATION_TYPE":"U","MEAN_MOTION":15.57984335,"ECCENTRICITY":0.00029469,"INCLINATION":41.4674,"RA_OF_ASC_NODE":210.7645,"ARG_OF_PERICENTER":269.5009,"MEAN_ANOMALY":90.5491,"EPHEMERIS_TYPE":0,"NORAD_CAT_ID":69180,"ELEMENT_SET_NO":999,"REV_AT_EPOCH":29615,"BSTAR":0.00022708907,"MEAN_MOTION_DOT":0.00017207,"MEAN_MOTION_DDOT":0}]}
