{
  "generated_at": "2026-07-13T07:11:34Z",
  "source": "CelesTrak SATCAT gp.php?GROUP=active (HEAD cache, no fetch)",
  "schema_version": "1.0",
  "records": [
    {
      "name": "SOYUZ-MS 28",
      "norad_id": 66664,
      "intl_designator": "25275-261",
      "line1": "1 66664U 25275A   26186.44376575  .00008907  00000+0  17013-3 0  9991",
      "line2": "2 66664  51.6303 209.7275 0006728 258.7638 101.2595 15.48905966644866",
      "category": "stations"
    },
    {
      "name": "CREW DRAGON 12",
      "norad_id": 67796,
      "intl_designator": "26031-261",
      "line1": "1 67796U 26031A   26186.44376575  .00008907  00000+0  17013-3 0  9999",
      "line2": "2 67796  51.6303 209.7275 0006728 258.7638 101.2595 15.48905966627134",
      "category": "stations"
    },
    {
      "name": "SHENZHOU-23 (SZ-23)",
      "norad_id": 69180,
      "intl_designator": "26113-261",
      "line1": "1 69180U 26113A   26186.47173112  .00017207  00000+0  22709-3 0  9995",
      "line2": "2 69180  41.4674 210.7645 0002946 269.5009  90.5491 15.57984335296150",
      "category": "stations"
    }
  ]
}